{
  "type": "FeatureCollection",
  "features": [
    {
      "type": "Feature",
      "properties": {
        "norad_id": 44873,
        "name": "CSG-1",
        "group": "resource",
        "lat": 19.56177400753935,
        "lon": 156.45194498442928,
        "alt_km": 622.3145404806019,
        "timestamp": "2025-12-03T19:33:06.637400+00:00",
        "meta_object_name": "CSG-1",
        "meta_object_id": "2019-092A",
        "meta_epoch": "2025-12-03T12:58:54.923808",
        "meta_mean_motion": 14.82143677,
        "meta_eccentricity": 0.0001476,
        "meta_inclination": 97.8806,
        "meta_ra_of_asc_node": 159.0035,
        "meta_arg_of_pericenter": 86.9853,
        "meta_mean_anomaly": 273.1529,
        "meta_ephemeris_type": 0,
        "meta_classification_type": "U",
        "meta_norad_cat_id": 44873,
        "meta_element_set_no": 999,
        "meta_rev_at_epoch": 32249,
        "meta_bstar": 0.00018656,
        "meta_mean_motion_dot": 1.433e-05,
        "meta_mean_motion_ddot": 0,
        "tle_line1": "1 44873U 19092A   25337.54091347  .00001433  00000+0  18656-3 0  9999",
        "tle_line2": "2 44873  97.8806 159.0035 0001476  86.9853 273.1529 14.82143677322498"
      },
      "geometry": {
        "type": "Point",
        "coordinates": [
          156.45194498442928,
          19.56177400753935
        ]
      }
    },
    {
      "type": "Feature",
      "properties": {
        "norad_id": 46277,
        "name": "NEMO-HD",
        "group": "resource",
        "lat": 61.793912633181236,
        "lon": -129.29285411045814,
        "alt_km": 439.00682570048684,
        "timestamp": "2025-12-03T19:33:06.637412+00:00",
        "meta_object_name": "NEMO-HD",
        "meta_object_id": "2020-061F",
        "meta_epoch": "2025-12-03T11:14:50.614368",
        "meta_mean_motion": 15.4002724,
        "meta_eccentricity": 0.0002359,
        "meta_inclination": 97.2233,
        "meta_ra_of_asc_node": 36.6866,
        "meta_arg_of_pericenter": 67.8511,
        "meta_mean_anomaly": 292.2986,
        "meta_ephemeris_type": 0,
        "meta_classification_type": "U",
        "meta_norad_cat_id": 46277,
        "meta_element_set_no": 999,
        "meta_rev_at_epoch": 29181,
        "meta_bstar": 0.00036053,
        "meta_mean_motion_dot": 0.00014326,
        "meta_mean_motion_ddot": 0,
        "tle_line1": "1 46277U 20061F   25337.46864137  .00014326  00000+0  36053-3 0  9999",
        "tle_line2": "2 46277  97.2233  36.6866 0002359  67.8511 292.2986 15.40027240291810"
      },
      "geometry": {
        "type": "Point",
        "coordinates": [
          -129.29285411045814,
          61.793912633181236
        ]
      }
    },
    {
      "type": "Feature",
      "properties": {
        "norad_id": 46984,
        "name": "SENTINEL-6A",
        "group": "resource",
        "lat": -12.32492752448864,
        "lon": 175.27050681042525,
        "alt_km": 1339.8215041080848,
        "timestamp": "2025-12-03T19:33:06.637424+00:00",
        "meta_object_name": "SENTINEL-6A",
        "meta_object_id": "2020-086A",
        "meta_epoch": "2025-12-03T12:07:36.718176",
        "meta_mean_motion": 12.80930117,
        "meta_eccentricity": 0.0007725,
        "meta_inclination": 66.0389,
        "meta_ra_of_asc_node": 181.4883,
        "meta_arg_of_pericenter": 269.1629,
        "meta_mean_anomaly": 90.8501,
        "meta_ephemeris_type": 0,
        "meta_classification_type": "U",
        "meta_norad_cat_id": 46984,
        "meta_element_set_no": 999,
        "meta_rev_at_epoch": 23526,
        "meta_bstar": 0.00017302,
        "meta_mean_motion_dot": -2.1e-07,
        "meta_mean_motion_ddot": 0,
        "tle_line1": "1 46984U 20086A   25337.50528609 -.00000021  00000+0  17302-3 0  9991",
        "tle_line2": "2 46984  66.0389 181.4883 0007725 269.1629  90.8501 12.80930117235267"
      },
      "geometry": {
        "type": "Point",
        "coordinates": [
          175.27050681042525,
          -12.32492752448864
        ]
      }
    },
    {
      "type": "Feature",
      "properties": {
        "norad_id": 48079,
        "name": "GAOFEN-12 02",
        "group": "resource",
        "lat": -31.888915165606665,
        "lon": -23.125441739465955,
        "alt_km": 635.3436689816353,
        "timestamp": "2025-12-03T19:33:06.637434+00:00",
        "meta_object_name": "GAOFEN-12 02",
        "meta_object_id": "2021-026A",
        "meta_epoch": "2025-12-03T13:12:34.774272",
        "meta_mean_motion": 14.80656965,
        "meta_eccentricity": 0.0003268,
        "meta_inclination": 97.9849,
        "meta_ra_of_asc_node": 331.6014,
        "meta_arg_of_pericenter": 119.4142,
        "meta_mean_anomaly": 240.7396,
        "meta_ephemeris_type": 0,
        "meta_classification_type": "U",
        "meta_norad_cat_id": 48079,
        "meta_element_set_no": 999,
        "meta_rev_at_epoch": 25281,
        "meta_bstar": 0.00011044,
        "meta_mean_motion_dot": 7.96e-06,
        "meta_mean_motion_ddot": 0,
        "tle_line1": "1 48079U 21026A   25337.55040248  .00000796  00000+0  11044-3 0  9991",
        "tle_line2": "2 48079  97.9849 331.6014 0003268 119.4142 240.7396 14.80656965252814"
      },
      "geometry": {
        "type": "Point",
        "coordinates": [
          -23.125441739465955,
          -31.888915165606665
        ]
      }
    },
    {
      "type": "Feature",
      "properties": {
        "norad_id": 48268,
        "name": "PLEIADES NEO 3",
        "group": "resource",
        "lat": 2.4872264510446405,
        "lon": 50.03803858059932,
        "alt_km": 626.7580484725686,
        "timestamp": "2025-12-03T19:33:06.637444+00:00",
        "meta_object_name": "PLEIADES NEO 3",
        "meta_object_id": "2021-034A",
        "meta_epoch": "2025-12-03T13:03:26.650080",
        "meta_mean_motion": 14.81668009,
        "meta_eccentricity": 0.0001266,
        "meta_inclination": 97.8948,
        "meta_ra_of_asc_node": 50.1167,
        "meta_arg_of_pericenter": 93.5658,
        "meta_mean_anomaly": 266.57,
        "meta_ephemeris_type": 0,
        "meta_classification_type": "U",
        "meta_norad_cat_id": 48268,
        "meta_element_set_no": 999,
        "meta_rev_at_epoch": 24868,
        "meta_bstar": -1.6062e-06,
        "meta_mean_motion_dot": -6.5e-07,
        "meta_mean_motion_ddot": 0,
        "tle_line1": "1 48268U 21034A   25337.54405845 -.00000065  00000+0 -16062-5 0  9995",
        "tle_line2": "2 48268  97.8948  50.1167 0001266  93.5658 266.5700 14.81668009248683"
      },
      "geometry": {
        "type": "Point",
        "coordinates": [
          50.03803858059932,
          2.4872264510446405
        ]
      }
    },
    {
      "type": "Feature",
      "properties": {
        "norad_id": 49070,
        "name": "PLEIADES NEO 4",
        "group": "resource",
        "lat": -2.8201183199517073,
        "lon": -130.01216441769142,
        "alt_km": 627.3800316671031,
        "timestamp": "2025-12-03T19:33:06.637453+00:00",
        "meta_object_name": "PLEIADES NEO 4",
        "meta_object_id": "2021-073E",
        "meta_epoch": "2025-12-03T12:14:48.257664",
        "meta_mean_motion": 14.81672005,
        "meta_eccentricity": 0.0001265,
        "meta_inclination": 97.8949,
        "meta_ra_of_asc_node": 50.0795,
        "meta_arg_of_pericenter": 97.3163,
        "meta_mean_anomaly": 262.8194,
        "meta_ephemeris_type": 0,
        "meta_classification_type": "U",
        "meta_norad_cat_id": 49070,
        "meta_element_set_no": 999,
        "meta_rev_at_epoch": 23239,
        "meta_bstar": 1.7608e-06,
        "meta_mean_motion_dot": -3.8e-07,
        "meta_mean_motion_ddot": 0,
        "tle_line1": "1 49070U 21073E   25337.51028076 -.00000038  00000+0  17608-5 0  9990",
        "tle_line2": "2 49070  97.8949  50.0795 0001265  97.3163 262.8194 14.81672005232392"
      },
      "geometry": {
        "type": "Point",
        "coordinates": [
          -130.01216441769142,
          -2.8201183199517073
        ]
      }
    },
    {
      "type": "Feature",
      "properties": {
        "norad_id": 49260,
        "name": "LANDSAT 9",
        "group": "resource",
        "lat": -81.28298141038024,
        "lon": 155.7197918279733,
        "alt_km": 710.6099150417476,
        "timestamp": "2025-12-03T19:33:06.637463+00:00",
        "meta_object_name": "LANDSAT 9",
        "meta_object_id": "2021-088A",
        "meta_epoch": "2025-12-03T05:08:43.061856",
        "meta_mean_motion": 14.57114347,
        "meta_eccentricity": 0.0001076,
        "meta_inclination": 98.2104,
        "meta_ra_of_asc_node": 45.4628,
        "meta_arg_of_pericenter": 92.6591,
        "meta_mean_anomaly": 267.4731,
        "meta_ephemeris_type": 0,
        "meta_classification_type": "U",
        "meta_norad_cat_id": 49260,
        "meta_element_set_no": 999,
        "meta_rev_at_epoch": 22246,
        "meta_bstar": 0.00016953,
        "meta_mean_motion_dot": 7.19e-06,
        "meta_mean_motion_ddot": 0,
        "tle_line1": "1 49260U 21088A   25337.21438729  .00000719  00000+0  16953-3 0  9999",
        "tle_line2": "2 49260  98.2104  45.4628 0001076  92.6591 267.4731 14.57114347222465"
      },
      "geometry": {
        "type": "Point",
        "coordinates": [
          155.7197918279733,
          -81.28298141038024
        ]
      }
    }
  ]
}